UNKNOWN                 
1 87737U          26036.60129598  .00000068  00000+0  11386-3 0  9994
2 87737  99.3703 272.1954 0133795  46.9162 314.3092 13.72351710611382
UNKNOWN                 
1 87764U          26037.36886488  .00018035  00000+0  29722-2 0  9991
2 87764  65.6721   9.2280 0359227  47.4433 101.5268 14.35772595627102
UNKNOWN                 
1 87771U          26038.40335653  .00000081  00000+0  31088-3 0  9999
2 87771 100.7428 240.8002 0119475 233.9064 125.0939 13.19534562542564
UNKNOWN                 
1 87782U          26035.92076971  .00003111  00000+0  10379-1 0  9995
2 87782 102.3539 279.7004 0033924  95.0914 265.4056 13.00713047575039
UNKNOWN                 
1 87843U          26036.01782186  .00002489  00000+0  56487-2 0  9994
2 87843  99.6587 150.6017 0245138 236.3526 121.3988 13.16820758571305
UNKNOWN                 
1 87845U          26037.10890120  .00002626  00000+0  49157-2 0  9994
2 87845  98.8639 348.7662 0577240 126.0212 239.5820 12.89105257572342
UNKNOWN                 
1 87878U          26028.09208441  .00006319  00000+0  19573-2 0  9999
2 87878  99.1569 155.8496 0036000 131.2496 229.1801 14.41181187617971
UNKNOWN                 
1 87884U          26036.22826887  .00000512  00000+0  30486-3 0  9996
2 87884  98.7325 143.1659 0152858 274.9137  83.4596 14.06025319626024
UNKNOWN                 
1 87991U          26036.68288986  .00005890  00000+0  11678-1 0  9991
2 87991  28.6243  29.2965 0890309  53.7818 314.1760 12.35471443529793
UNKNOWN                 
1 89005U          26036.97262826  .00006425  00000+0  14516-2 0  9996
2 89005  97.8398 226.9910 0189934 221.3790 137.2886 14.45992265542075
UNKNOWN                 
1 89029U          26035.99064605  .00008718  00000+0  79367-3 0  9991
2 89029  98.0469 301.6350 0022938 142.0463 218.2379 14.95225677659187
UNKNOWN                 
1 89101U          26035.64835561  .00000219  00000+0  78211-3 0  9996
2 89101 100.4703 335.6507 0147810 348.1338  11.6300 13.04032956561877
