CCSDS_OMM_VERS = 2.0
CREATION_DATE  = 
ORIGINATOR     = 

OBJECT_NAME    = UNKNOWN
OBJECT_ID      = 
CENTER_NAME    = EARTH
REF_FRAME      = TEME
TIME_SYSTEM    = UTC
MEAN_ELEMENT_THEORY = SGP/SGP4

EPOCH          = 2026-02-05T14:25:51.972672
MEAN_MOTION    = 13.72351710
ECCENTRICITY   = .0133795
INCLINATION    = 99.3703
RA_OF_ASC_NODE = 272.1954
ARG_OF_PERICENTER = 46.9162
MEAN_ANOMALY   = 314.3092

EPHEMERIS_TYPE = 0
CLASSIFICATION_TYPE = U
NORAD_CAT_ID   = 87737
ELEMENT_SET_NO = 999
REV_AT_EPOCH   = 61138
BSTAR          = .11386E-3
MEAN_MOTION_DOT = .68E-6
MEAN_MOTION_DDOT = 0

CCSDS_OMM_VERS = 2.0
CREATION_DATE  = 
ORIGINATOR     = 

OBJECT_NAME    = UNKNOWN
OBJECT_ID      = 
CENTER_NAME    = EARTH
REF_FRAME      = TEME
TIME_SYSTEM    = UTC
MEAN_ELEMENT_THEORY = SGP/SGP4

EPOCH          = 2026-02-06T08:51:09.925632
MEAN_MOTION    = 14.35772595
ECCENTRICITY   = .0359227
INCLINATION    = 65.6721
RA_OF_ASC_NODE = 9.2280
ARG_OF_PERICENTER = 47.4433
MEAN_ANOMALY   = 101.5268

EPHEMERIS_TYPE = 0
CLASSIFICATION_TYPE = U
NORAD_CAT_ID   = 87764
ELEMENT_SET_NO = 999
REV_AT_EPOCH   = 62710
BSTAR          = .29722E-2
MEAN_MOTION_DOT = .18035E-3
MEAN_MOTION_DDOT = 0

CCSDS_OMM_VERS = 2.0
CREATION_DATE  = 
ORIGINATOR     = 

OBJECT_NAME    = UNKNOWN
OBJECT_ID      = 
CENTER_NAME    = EARTH
REF_FRAME      = TEME
TIME_SYSTEM    = UTC
MEAN_ELEMENT_THEORY = SGP/SGP4

EPOCH          = 2026-02-07T09:40:50.004192
MEAN_MOTION    = 13.19534562
ECCENTRICITY   = .0119475
INCLINATION    = 100.7428
RA_OF_ASC_NODE = 240.8002
ARG_OF_PERICENTER = 233.9064
MEAN_ANOMALY   = 125.0939

EPHEMERIS_TYPE = 0
CLASSIFICATION_TYPE = U
NORAD_CAT_ID   = 87771
ELEMENT_SET_NO = 999
REV_AT_EPOCH   = 54256
BSTAR          = .31088E-3
MEAN_MOTION_DOT = .81E-6
MEAN_MOTION_DDOT = 0

CCSDS_OMM_VERS = 2.0
CREATION_DATE  = 
ORIGINATOR     = 

OBJECT_NAME    = UNKNOWN
OBJECT_ID      = 
CENTER_NAME    = EARTH
REF_FRAME      = TEME
TIME_SYSTEM    = UTC
MEAN_ELEMENT_THEORY = SGP/SGP4

EPOCH          = 2026-02-04T22:05:54.502944
MEAN_MOTION    = 13.00713047
ECCENTRICITY   = .0033924
INCLINATION    = 102.3539
RA_OF_ASC_NODE = 279.7004
ARG_OF_PERICENTER = 95.0914
MEAN_ANOMALY   = 265.4056

EPHEMERIS_TYPE = 0
CLASSIFICATION_TYPE = U
NORAD_CAT_ID   = 87782
ELEMENT_SET_NO = 999
REV_AT_EPOCH   = 57503
BSTAR          = .10379E-1
MEAN_MOTION_DOT = .3111E-4
MEAN_MOTION_DDOT = 0

CCSDS_OMM_VERS = 2.0
CREATION_DATE  = 
ORIGINATOR     = 

OBJECT_NAME    = UNKNOWN
OBJECT_ID      = 
CENTER_NAME    = EARTH
REF_FRAME      = TEME
TIME_SYSTEM    = UTC
MEAN_ELEMENT_THEORY = SGP/SGP4

EPOCH          = 2026-02-05T00:25:39.808704
MEAN_MOTION    = 13.16820758
ECCENTRICITY   = .0245138
INCLINATION    = 99.6587
RA_OF_ASC_NODE = 150.6017
ARG_OF_PERICENTER = 236.3526
MEAN_ANOMALY   = 121.3988

EPHEMERIS_TYPE = 0
CLASSIFICATION_TYPE = U
NORAD_CAT_ID   = 87843
ELEMENT_SET_NO = 999
REV_AT_EPOCH   = 57130
BSTAR          = .56487E-2
MEAN_MOTION_DOT = .2489E-4
MEAN_MOTION_DDOT = 0

CCSDS_OMM_VERS = 2.0
CREATION_DATE  = 
ORIGINATOR     = 

OBJECT_NAME    = UNKNOWN
OBJECT_ID      = 
CENTER_NAME    = EARTH
REF_FRAME      = TEME
TIME_SYSTEM    = UTC
MEAN_ELEMENT_THEORY = SGP/SGP4

EPOCH          = 2026-02-06T02:36:49.063680
MEAN_MOTION    = 12.89105257
ECCENTRICITY   = .057724
INCLINATION    = 98.8639
RA_OF_ASC_NODE = 348.7662
ARG_OF_PERICENTER = 126.0212
MEAN_ANOMALY   = 239.5820

EPHEMERIS_TYPE = 0
CLASSIFICATION_TYPE = U
NORAD_CAT_ID   = 87845
ELEMENT_SET_NO = 999
REV_AT_EPOCH   = 57234
BSTAR          = .49157E-2
MEAN_MOTION_DOT = .2626E-4
MEAN_MOTION_DDOT = 0

CCSDS_OMM_VERS = 2.0
CREATION_DATE  = 
ORIGINATOR     = 

OBJECT_NAME    = UNKNOWN
OBJECT_ID      = 
CENTER_NAME    = EARTH
REF_FRAME      = TEME
TIME_SYSTEM    = UTC
MEAN_ELEMENT_THEORY = SGP/SGP4

EPOCH          = 2026-01-28T02:12:36.093024
MEAN_MOTION    = 14.41181187
ECCENTRICITY   = .0036
INCLINATION    = 99.1569
RA_OF_ASC_NODE = 155.8496
ARG_OF_PERICENTER = 131.2496
MEAN_ANOMALY   = 229.1801

EPHEMERIS_TYPE = 0
CLASSIFICATION_TYPE = U
NORAD_CAT_ID   = 87878
ELEMENT_SET_NO = 999
REV_AT_EPOCH   = 61797
BSTAR          = .19573E-2
MEAN_MOTION_DOT = .6319E-4
MEAN_MOTION_DDOT = 0

CCSDS_OMM_VERS = 2.0
CREATION_DATE  = 
ORIGINATOR     = 

OBJECT_NAME    = UNKNOWN
OBJECT_ID      = 
CENTER_NAME    = EARTH
REF_FRAME      = TEME
TIME_SYSTEM    = UTC
MEAN_ELEMENT_THEORY = SGP/SGP4

EPOCH          = 2026-02-05T05:28:42.430368
MEAN_MOTION    = 14.06025319
ECCENTRICITY   = .0152858
INCLINATION    = 98.7325
RA_OF_ASC_NODE = 143.1659
ARG_OF_PERICENTER = 274.9137
MEAN_ANOMALY   = 83.4596

EPHEMERIS_TYPE = 0
CLASSIFICATION_TYPE = U
NORAD_CAT_ID   = 87884
ELEMENT_SET_NO = 999
REV_AT_EPOCH   = 62602
BSTAR          = .30486E-3
MEAN_MOTION_DOT = .512E-5
MEAN_MOTION_DDOT = 0

CCSDS_OMM_VERS = 2.0
CREATION_DATE  = 
ORIGINATOR     = 

OBJECT_NAME    = UNKNOWN
OBJECT_ID      = 
CENTER_NAME    = EARTH
REF_FRAME      = TEME
TIME_SYSTEM    = UTC
MEAN_ELEMENT_THEORY = SGP/SGP4

EPOCH          = 2026-02-05T16:23:21.683904
MEAN_MOTION    = 12.35471443
ECCENTRICITY   = .0890309
INCLINATION    = 28.6243
RA_OF_ASC_NODE = 29.2965
ARG_OF_PERICENTER = 53.7818
MEAN_ANOMALY   = 314.1760

EPHEMERIS_TYPE = 0
CLASSIFICATION_TYPE = U
NORAD_CAT_ID   = 87991
ELEMENT_SET_NO = 999
REV_AT_EPOCH   = 52979
BSTAR          = .11678E-1
MEAN_MOTION_DOT = .589E-4
MEAN_MOTION_DDOT = 0

CCSDS_OMM_VERS = 2.0
CREATION_DATE  = 
ORIGINATOR     = 

OBJECT_NAME    = UNKNOWN
OBJECT_ID      = 
CENTER_NAME    = EARTH
REF_FRAME      = TEME
TIME_SYSTEM    = UTC
MEAN_ELEMENT_THEORY = SGP/SGP4

EPOCH          = 2026-02-05T23:20:35.081664
MEAN_MOTION    = 14.45992265
ECCENTRICITY   = .0189934
INCLINATION    = 97.8398
RA_OF_ASC_NODE = 226.9910
ARG_OF_PERICENTER = 221.3790
MEAN_ANOMALY   = 137.2886

EPHEMERIS_TYPE = 0
CLASSIFICATION_TYPE = U
NORAD_CAT_ID   = 89005
ELEMENT_SET_NO = 999
REV_AT_EPOCH   = 54207
BSTAR          = .14516E-2
MEAN_MOTION_DOT = .6425E-4
MEAN_MOTION_DDOT = 0

CCSDS_OMM_VERS = 2.0
CREATION_DATE  = 
ORIGINATOR     = 

OBJECT_NAME    = UNKNOWN
OBJECT_ID      = 
CENTER_NAME    = EARTH
REF_FRAME      = TEME
TIME_SYSTEM    = UTC
MEAN_ELEMENT_THEORY = SGP/SGP4

EPOCH          = 2026-02-04T23:46:31.818720
MEAN_MOTION    = 14.95225677
ECCENTRICITY   = .0022938
INCLINATION    = 98.0469
RA_OF_ASC_NODE = 301.6350
ARG_OF_PERICENTER = 142.0463
MEAN_ANOMALY   = 218.2379

EPHEMERIS_TYPE = 0
CLASSIFICATION_TYPE = U
NORAD_CAT_ID   = 89029
ELEMENT_SET_NO = 999
REV_AT_EPOCH   = 65918
BSTAR          = .79367E-3
MEAN_MOTION_DOT = .8718E-4
MEAN_MOTION_DDOT = 0

CCSDS_OMM_VERS = 2.0
CREATION_DATE  = 
ORIGINATOR     = 

OBJECT_NAME    = UNKNOWN
OBJECT_ID      = 
CENTER_NAME    = EARTH
REF_FRAME      = TEME
TIME_SYSTEM    = UTC
MEAN_ELEMENT_THEORY = SGP/SGP4

EPOCH          = 2026-02-04T15:33:37.924704
MEAN_MOTION    = 13.04032956
ECCENTRICITY   = .014781
INCLINATION    = 100.4703
RA_OF_ASC_NODE = 335.6507
ARG_OF_PERICENTER = 348.1338
MEAN_ANOMALY   = 11.6300

EPHEMERIS_TYPE = 0
CLASSIFICATION_TYPE = U
NORAD_CAT_ID   = 89101
ELEMENT_SET_NO = 999
REV_AT_EPOCH   = 56187
BSTAR          = .78211E-3
MEAN_MOTION_DOT = .219E-5
MEAN_MOTION_DDOT = 0

